{
    "links": {
        "self": "http://www.neowsapp.com/rest/v1/neo/3802578?api_key=iIulBulltgU6a56xZRHN4H3l9WmuAYTsLGpBGhQ2"
    },
    "id": "3802578",
    "neo_reference_id": "3802578",
    "name": "(2018 GD4)",
    "designation": "2018 GD4",
    "nasa_jpl_url": "http://ssd.jpl.nasa.gov/sbdb.cgi?sstr=3802578",
    "absolute_magnitude_h": 26.0,
    "estimated_diameter": {
        "kilometers": {
            "estimated_diameter_min": 0.0167708462,
            "estimated_diameter_max": 0.0375007522
        },
        "meters": {
            "estimated_diameter_min": 16.7708462163,
            "estimated_diameter_max": 37.5007521798
        },
        "miles": {
            "estimated_diameter_min": 0.0104209175,
            "estimated_diameter_max": 0.0233018799
        },
        "feet": {
            "estimated_diameter_min": 55.0224631002,
            "estimated_diameter_max": 123.0339677816
        }
    },
    "is_potentially_hazardous_asteroid": false,
    "close_approach_data": [
        {
            "close_approach_date": "2018-04-01",
            "close_approach_date_full": "2018-Apr-01 14:03",
            "epoch_date_close_approach": 1522591380000,
            "relative_velocity": {
                "kilometers_per_second": "13.0621160634",
                "kilometers_per_hour": "47023.6178282",
                "miles_per_hour": "29218.6474221946"
            },
            "miss_distance": {
                "astronomical": "0.0209151886",
                "lunar": "8.1360083654",
                "kilometers": "3128867.665208282",
                "miles": "1944188.2139550116"
            },
            "orbiting_body": "Earth"
        }
    ],
    "orbital_data": {
        "orbit_id": "1",
        "orbit_determination_date": "2018-04-15 09:12:06",
        "first_observation_date": "2018-04-11",
        "last_observation_date": "2018-04-15",
        "data_arc_in_days": 4,
        "observations_used": 22,
        "orbit_uncertainty": "8",
        "minimum_orbit_intersection": ".00594538",
        "jupiter_tisserand_invariant": "4.126",
        "epoch_osculation": "2458220.5",
        "eccentricity": ".5061348234177181",
        "semi_major_axis": "1.646359331369638",
        "inclination": "5.494008802192939",
        "ascending_node_longitude": "186.258055964158",
        "orbital_period": "771.5878337959354",
        "perihelion_distance": ".8130795419047537",
        "perihelion_argument": "300.2266192484937",
        "aphelion_distance": "2.479639120834522",
        "perihelion_time": "2458165.159351938228",
        "mean_anomaly": "25.82030512874433",
        "mean_motion": ".4665703426516319",
        "equinox": "J2000",
        "orbit_class": {
            "orbit_class_type": "APO",
            "orbit_class_description": "Near-Earth asteroid orbits which cross the Earth’s orbit similar to that of 1862 Apollo",
            "orbit_class_range": "a (semi-major axis) > 1.0 AU; q (perihelion) < 1.017 AU"
        }
    },
    "is_sentry_object": false
}